[{"OBJECT_NAME":"STARLINK-6202","OBJECT_ID":"2023-083W","EPOCH":"2025-10-09T02:49:38.983584","MEAN_MOTION":15.02560961,"ECCENTRICITY":0.00011895,"INCLINATION":43.0036,"RA_OF_ASC_NODE":185.0611,"ARG_OF_PERICENTER":273.5007,"MEAN_ANOMALY":86.5699,"EPHEMERIS_TYPE":0,"CLASSIFICATION_TYPE":"U","NORAD_CAT_ID":56896,"ELEMENT_SET_NO":999,"REV_AT_EPOCH":12898,"BSTAR":0.00017867153,"MEAN_MOTION_DOT":2.212e-5,"MEAN_MOTION_DDOT":0},{"OBJECT_NAME":"STARLINK-6200","OBJECT_ID":"2023-083X","EPOCH":"2025-10-09T02:54:29.583072","MEAN_MOTION":15.02525632,"ECCENTRICITY":0.00013136,"INCLINATION":43.0009,"RA_OF_ASC_NODE":185.0889,"ARG_OF_PERICENTER":280.7461,"MEAN_ANOMALY":79.3233,"EPHEMERIS_TYPE":0,"CLASSIFICATION_TYPE":"U","NORAD_CAT_ID":56897,"ELEMENT_SET_NO":999,"REV_AT_EPOCH":12899,"BSTAR":-0.00013999119,"MEAN_MOTION_DOT":-2.094e-5,"MEAN_MOTION_DDOT":0},{"OBJECT_NAME":"STARLINK-6205","OBJECT_ID":"2023-083Y","EPOCH":"2025-10-09T02:40:06.372768","MEAN_MOTION":15.02528245,"ECCENTRICITY":0.00010204,"INCLINATION":43.0035,"RA_OF_ASC_NODE":185.0145,"ARG_OF_PERICENTER":276.2505,"MEAN_ANOMALY":83.8222,"EPHEMERIS_TYPE":0,"CLASSIFICATION_TYPE":"U","NORAD_CAT_ID":56898,"ELEMENT_SET_NO":999,"REV_AT_EPOCH":12898,"BSTAR":-5.3385208e-5,"MEAN_MOTION_DOT":-9.24e-6,"MEAN_MOTION_DDOT":0},{"OBJECT_NAME":"STARLINK-6203","OBJECT_ID":"2023-083Z","EPOCH":"2025-10-09T02:44:50.772192","MEAN_MOTION":15.02563177,"ECCENTRICITY":0.00012022,"INCLINATION":43.0029,"RA_OF_ASC_NODE":185.0391,"ARG_OF_PERICENTER":267.483,"MEAN_ANOMALY":92.5874,"EPHEMERIS_TYPE":0,"CLASSIFICATION_TYPE":"U","NORAD_CAT_ID":56899,"ELEMENT_SET_NO":999,"REV_AT_EPOCH":12898,"BSTAR":0.00020657012,"MEAN_MOTION_DOT":2.59e-5,"MEAN_MOTION_DDOT":0},{"OBJECT_NAME":"STARLINK-6207","OBJECT_ID":"2023-083AA","EPOCH":"2025-10-09T02:45:25.899840","MEAN_MOTION":15.02535436,"ECCENTRICITY":0.00011656,"INCLINATION":43.0029,"RA_OF_ASC_NODE":172.9075,"ARG_OF_PERICENTER":272.3289,"MEAN_ANOMALY":87.742,"EPHEMERIS_TYPE":0,"CLASSIFICATION_TYPE":"U","NORAD_CAT_ID":56900,"ELEMENT_SET_NO":999,"REV_AT_EPOCH":12898,"BSTAR":7.103314e-6,"MEAN_MOTION_DOT":-1.08e-6,"MEAN_MOTION_DDOT":0},{"OBJECT_NAME":"STARLINK-6185","OBJECT_ID":"2023-083AB","EPOCH":"2025-10-09T02:36:54.465408","MEAN_MOTION":15.02528243,"ECCENTRICITY":0.00012047,"INCLINATION":43.0025,"RA_OF_ASC_NODE":184.9988,"ARG_OF_PERICENTER":270.2196,"MEAN_ANOMALY":89.8508,"EPHEMERIS_TYPE":0,"CLASSIFICATION_TYPE":"U","NORAD_CAT_ID":56901,"ELEMENT_SET_NO":999,"REV_AT_EPOCH":12898,"BSTAR":-5.0033252e-5,"MEAN_MOTION_DOT":-8.79e-6,"MEAN_MOTION_DDOT":0},{"OBJECT_NAME":"STARLINK-6195","OBJECT_ID":"2023-083AC","EPOCH":"2025-10-09T01:04:55.104672","MEAN_MOTION":15.02526416,"ECCENTRICITY":9.633e-5,"INCLINATION":43.003,"RA_OF_ASC_NODE":173.2434,"ARG_OF_PERICENTER":269.7396,"MEAN_ANOMALY":90.3336,"EPHEMERIS_TYPE":0,"CLASSIFICATION_TYPE":"U","NORAD_CAT_ID":56902,"ELEMENT_SET_NO":999,"REV_AT_EPOCH":12911,"BSTAR":-2.9520701e-5,"MEAN_MOTION_DOT":-6.02e-6,"MEAN_MOTION_DDOT":0},{"OBJECT_NAME":"STARLINK-6192","OBJECT_ID":"2023-083AD","EPOCH":"2025-10-09T02:41:41.714304","MEAN_MOTION":15.02540095,"ECCENTRICITY":0.00014506,"INCLINATION":43.0052,"RA_OF_ASC_NODE":185.0206,"ARG_OF_PERICENTER":269.3879,"MEAN_ANOMALY":90.6797,"EPHEMERIS_TYPE":0,"CLASSIFICATION_TYPE":"U","NORAD_CAT_ID":56903,"ELEMENT_SET_NO":999,"REV_AT_EPOCH":12898,"BSTAR":-0.00017091399,"MEAN_MOTION_DOT":-2.512e-5,"MEAN_MOTION_DDOT":0},{"OBJECT_NAME":"STARLINK-6193","OBJECT_ID":"2023-083AE","EPOCH":"2025-10-09T02:07:04.467360","MEAN_MOTION":15.02537021,"ECCENTRICITY":0.00012647,"INCLINATION":43.0042,"RA_OF_ASC_NODE":172.7038,"ARG_OF_PERICENTER":253.1551,"MEAN_ANOMALY":106.9153,"EPHEMERIS_TYPE":0,"CLASSIFICATION_TYPE":"U","NORAD_CAT_ID":56904,"ELEMENT_SET_NO":999,"REV_AT_EPOCH":12901,"BSTAR":-2.1797954e-5,"MEAN_MOTION_DOT":-4.98e-6,"MEAN_MOTION_DDOT":0},{"OBJECT_NAME":"STARLINK-6183","OBJECT_ID":"2023-083AF","EPOCH":"2025-10-09T02:35:51.039168","MEAN_MOTION":15.02528193,"ECCENTRICITY":9.973e-5,"INCLINATION":43.0026,"RA_OF_ASC_NODE":172.8608,"ARG_OF_PERICENTER":267.5957,"MEAN_ANOMALY":92.4772,"EPHEMERIS_TYPE":0,"CLASSIFICATION_TYPE":"U","NORAD_CAT_ID":56905,"ELEMENT_SET_NO":999,"REV_AT_EPOCH":12901,"BSTAR":-2.188655e-5,"MEAN_MOTION_DOT":-4.99e-6,"MEAN_MOTION_DDOT":0},{"OBJECT_NAME":"STARLINK-6098","OBJECT_ID":"2023-083AG","EPOCH":"2025-10-09T00:55:19.141536","MEAN_MOTION":15.02532326,"ECCENTRICITY":0.0001379,"INCLINATION":43.0032,"RA_OF_ASC_NODE":173.1909,"ARG_OF_PERICENTER":263.7928,"MEAN_ANOMALY":96.2757,"EPHEMERIS_TYPE":0,"CLASSIFICATION_TYPE":"U","NORAD_CAT_ID":56906,"ELEMENT_SET_NO":999,"REV_AT_EPOCH":12900,"BSTAR":-9.1747159e-5,"MEAN_MOTION_DOT":-1.443e-5,"MEAN_MOTION_DDOT":0},{"OBJECT_NAME":"STARLINK-6110","OBJECT_ID":"2023-083AH","EPOCH":"2025-10-09T02:32:39.318432","MEAN_MOTION":15.02536991,"ECCENTRICITY":0.00011341,"INCLINATION":43.0033,"RA_OF_ASC_NODE":172.8411,"ARG_OF_PERICENTER":272.4328,"MEAN_ANOMALY":87.6385,"EPHEMERIS_TYPE":0,"CLASSIFICATION_TYPE":"U","NORAD_CAT_ID":56907,"ELEMENT_SET_NO":999,"REV_AT_EPOCH":12912,"BSTAR":0.00022134901,"MEAN_MOTION_DOT":2.788e-5,"MEAN_MOTION_DDOT":0},{"OBJECT_NAME":"STARLINK-6186","OBJECT_ID":"2023-083AJ","EPOCH":"2025-10-09T02:16:39.848160","MEAN_MOTION":15.02534251,"ECCENTRICITY":0.00011563,"INCLINATION":43.0046,"RA_OF_ASC_NODE":172.7549,"ARG_OF_PERICENTER":269.2351,"MEAN_ANOMALY":90.8359,"EPHEMERIS_TYPE":0,"CLASSIFICATION_TYPE":"U","NORAD_CAT_ID":56908,"ELEMENT_SET_NO":999,"REV_AT_EPOCH":12901,"BSTAR":-7.1184196e-5,"MEAN_MOTION_DOT":-1.165e-5,"MEAN_MOTION_DDOT":0},{"OBJECT_NAME":"STARLINK-5999","OBJECT_ID":"2023-083AK","EPOCH":"2025-10-09T01:01:42.701376","MEAN_MOTION":15.02537875,"ECCENTRICITY":0.00013382,"INCLINATION":43.0045,"RA_OF_ASC_NODE":173.224,"ARG_OF_PERICENTER":264.8668,"MEAN_ANOMALY":95.2021,"EPHEMERIS_TYPE":0,"CLASSIFICATION_TYPE":"U","NORAD_CAT_ID":56909,"ELEMENT_SET_NO":999,"REV_AT_EPOCH":12911,"BSTAR":-4.7704218e-5,"MEAN_MOTION_DOT":-8.48e-6,"MEAN_MOTION_DDOT":0},{"OBJECT_NAME":"STARLINK-6179","OBJECT_ID":"2023-083AL","EPOCH":"2025-10-09T00:32:56.387904","MEAN_MOTION":15.02557012,"ECCENTRICITY":9.504e-5,"INCLINATION":43.005,"RA_OF_ASC_NODE":173.0734,"ARG_OF_PERICENTER":261.766,"MEAN_ANOMALY":98.3075,"EPHEMERIS_TYPE":0,"CLASSIFICATION_TYPE":"U","NORAD_CAT_ID":56910,"ELEMENT_SET_NO":999,"REV_AT_EPOCH":12900,"BSTAR":-0.00037134206,"MEAN_MOTION_DOT":-5.219e-5,"MEAN_MOTION_DDOT":0},{"OBJECT_NAME":"STARLINK-6116","OBJECT_ID":"2023-083AM","EPOCH":"2025-10-09T00:50:31.445952","MEAN_MOTION":15.0253558,"ECCENTRICITY":0.00013369,"INCLINATION":43.0032,"RA_OF_ASC_NODE":173.1662,"ARG_OF_PERICENTER":272.7511,"MEAN_ANOMALY":87.3179,"EPHEMERIS_TYPE":0,"CLASSIFICATION_TYPE":"U","NORAD_CAT_ID":56911,"ELEMENT_SET_NO":999,"REV_AT_EPOCH":12900,"BSTAR":-1.0715429e-5,"MEAN_MOTION_DOT":-3.48e-6,"MEAN_MOTION_DDOT":0}]
