STARLINK-6202           
1 56896U 23083W   25282.11781231  .00002212  00000+0  17867-3 0  9991
2 56896  43.0036 185.0611 0001189 273.5007  86.5699 15.02560961128983
STARLINK-6200           
1 56897U 23083X   25282.12117573 -.00002094  00000+0 -13999-3 0  9997
2 56897  43.0009 185.0889 0001313 280.7461  79.3233 15.02525632128995
STARLINK-6205           
1 56898U 23083Y   25282.11118487 -.00000924  00000+0 -53385-4 0  9996
2 56898  43.0035 185.0145 0001020 276.2505  83.8222 15.02528245128984
STARLINK-6203           
1 56899U 23083Z   25282.11447653  .00002590  00000+0  20657-3 0  9991
2 56899  43.0029 185.0391 0001202 267.4830  92.5874 15.02563177128989
STARLINK-6207           
1 56900U 23083AA  25282.11488310 -.00000108  00000+0  71033-5 0  9999
2 56900  43.0029 172.9075 0001165 272.3289  87.7420 15.02535436128987
STARLINK-6185           
1 56901U 23083AB  25282.10896372 -.00000879  00000+0 -50033-4 0  9992
2 56901  43.0025 184.9988 0001204 270.2196  89.8508 15.02528243128986
STARLINK-6195           
1 56902U 23083AC  25282.04508223 -.00000602  00000+0 -29521-4 0  9993
2 56902  43.0030 173.2434 0000963 269.7396  90.3336 15.02526416129118
STARLINK-6192           
1 56903U 23083AD  25282.11228836 -.00002512  00000+0 -17091-3 0  9991
2 56903  43.0052 185.0206 0001450 269.3879  90.6797 15.02540095128982
STARLINK-6193           
1 56904U 23083AE  25282.08824615 -.00000498  00000+0 -21798-4 0  9996
2 56904  43.0042 172.7038 0001264 253.1551 106.9153 15.02537021129016
STARLINK-6183           
1 56905U 23083AF  25282.10822962 -.00000499  00000+0 -21887-4 0  9993
2 56905  43.0026 172.8608 0000997 267.5957  92.4772 15.02528193129010
STARLINK-6098           
1 56906U 23083AG  25282.03841599 -.00001443  00000+0 -91747-4 0  9995
2 56906  43.0032 173.1909 0001379 263.7928  96.2757 15.02532326129004
STARLINK-6110           
1 56907U 23083AH  25282.10601063  .00002788  00000+0  22135-3 0  9999
2 56907  43.0033 172.8411 0001134 272.4328  87.6385 15.02536991129126
STARLINK-6186           
1 56908U 23083AJ  25282.09490565 -.00001165  00000+0 -71184-4 0  9990
2 56908  43.0046 172.7549 0001156 269.2351  90.8359 15.02534251129018
STARLINK-5999           
1 56909U 23083AK  25282.04285534 -.00000848  00000+0 -47704-4 0  9992
2 56909  43.0045 173.2240 0001338 264.8668  95.2021 15.02537875129117
STARLINK-6179           
1 56910U 23083AL  25282.02287486 -.00005219  00000+0 -37134-3 0  9992
2 56910  43.0050 173.0734 0000950 261.7660  98.3075 15.02557012129004
STARLINK-6116           
1 56911U 23083AM  25282.03508618 -.00000348  00000+0 -10715-4 0  9992
2 56911  43.0032 173.1662 0001336 272.7511  87.3179 15.02535580129001
